0 FENGYUN 1C DEB
1 29964U 99025KN  13281.37626344  .00000702  00000-0  51817-3 0  2093
2 29964 098.3988 074.0506 0148744 110.1714 251.5518 13.93112644342237
0 FENGYUN 1C DEB
1 29964U 99025KN  13282.38176960  .00000856  00000-0  62582-3 0  2102
2 29964 098.3987 074.9640 0148694 107.3836 254.3649 13.93116767342372
0 FENGYUN 1C DEB
1 29964U 99025KN  13283.38727200  .00000964  00000-0  70159-3 0  2112
2 29964 098.3987 075.8774 0148678 104.6007 257.1695 13.93117690342516
0 FENGYUN 1C DEB
1 29964U 99025KN  13285.39827191  .00001074  00000-0  77929-3 0  2121
2 29964 098.3990 077.7042 0148642 099.0291 262.7726 13.93119850342799
0 FENGYUN 1C DEB
1 29964U 99025KN  13286.69105367  .00001233  00000-0  89076-3 0  2133
2 29964 098.3992 078.8784 0148648 095.4516 266.3623 13.93122410342974
0 FENGYUN 1C DEB
1 29964U 99025KN  13288.41475781  .00001371  00000-0  98716-3 0  2140
2 29964 098.3996 080.4443 0148561 090.6750 271.1437 13.93129224343215
0 FENGYUN 1C DEB
1 29964U 99025KN  13289.56388862  .00001074  00000-0  77911-3 0  2155
2 29964 098.3998 081.4882 0148491 087.4926 274.3226 13.93133712343371
0 FENGYUN 1C DEB
1 29964U 99025KN  13291.43121623  .00000882  00000-0  64475-3 0  2162
2 29964 098.4000 083.1848 0148363 082.3172 279.4811 13.93138793343631
0 FENGYUN 1C DEB
1 29964U 99025KN  13292.93943459  .00000970  00000-0  70644-3 0  2171
2 29964 098.4000 084.5550 0148270 078.1378 283.6369 13.93141242343845
0 FENGYUN 1C DEB
1 29964U 99025KN  13293.94491068  .00000989  00000-0  71943-3 0  2181
2 29964 098.3999 085.4685 0148213 075.3430 286.4111 13.93143472343983
0 FENGYUN 1C DEB
1 29964U 99025KN  13294.95038407  .00001113  00000-0  80638-3 0  2199
2 29964 098.3998 086.3819 0148170 072.5527 289.1772 13.93144670344120
